[{"OBJECT_NAME":"STARLINK-36214","OBJECT_ID":"2025-299AD","EPOCH":"2026-01-30T16:00:01.999584","MEAN_MOTION":15.40682615,"ECCENTRICITY":0.00016862,"INCLINATION":43.0026,"RA_OF_ASC_NODE":27.4157,"ARG_OF_PERICENTER":280.1276,"MEAN_ANOMALY":252.5402,"EPHEMERIS_TYPE":0,"CLASSIFICATION_TYPE":"U","NORAD_CAT_ID":67129,"ELEMENT_SET_NO":999,"REV_AT_EPOCH":580,"BSTAR":0.00016108106,"MEAN_MOTION_DOT":6.427e-5,"MEAN_MOTION_DDOT":0},{"OBJECT_NAME":"STARLINK-36194","OBJECT_ID":"2025-299AE","EPOCH":"2026-01-30T17:08:00.159072","MEAN_MOTION":15.4069658,"ECCENTRICITY":8.919e-5,"INCLINATION":43.0024,"RA_OF_ASC_NODE":27.3266,"ARG_OF_PERICENTER":46.0809,"MEAN_ANOMALY":314.0122,"EPHEMERIS_TYPE":0,"CLASSIFICATION_TYPE":"U","NORAD_CAT_ID":67130,"ELEMENT_SET_NO":999,"REV_AT_EPOCH":726,"BSTAR":0.0013946143,"MEAN_MOTION_DOT":0.00058393,"MEAN_MOTION_DDOT":0},{"OBJECT_NAME":"STARLINK-36182","OBJECT_ID":"2025-304A","EPOCH":"2026-01-30T17:44:24.442656","MEAN_MOTION":15.42753596,"ECCENTRICITY":0.0003162,"INCLINATION":70.0028,"RA_OF_ASC_NODE":272.4001,"ARG_OF_PERICENTER":265.796,"MEAN_ANOMALY":94.286,"EPHEMERIS_TYPE":0,"CLASSIFICATION_TYPE":"U","NORAD_CAT_ID":67192,"ELEMENT_SET_NO":999,"REV_AT_EPOCH":811,"BSTAR":0.00094240867,"MEAN_MOTION_DOT":0.00041401,"MEAN_MOTION_DDOT":0},{"OBJECT_NAME":"STARLINK-36279","OBJECT_ID":"2025-304B","EPOCH":"2026-01-30T23:11:11.197248","MEAN_MOTION":15.42788261,"ECCENTRICITY":0.00033963,"INCLINATION":70.0014,"RA_OF_ASC_NODE":271.5809,"ARG_OF_PERICENTER":268.7176,"MEAN_ANOMALY":91.3617,"EPHEMERIS_TYPE":0,"CLASSIFICATION_TYPE":"U","NORAD_CAT_ID":67193,"ELEMENT_SET_NO":999,"REV_AT_EPOCH":818,"BSTAR":0.0012643852,"MEAN_MOTION_DOT":0.00055766,"MEAN_MOTION_DDOT":0},{"OBJECT_NAME":"STARLINK-36284","OBJECT_ID":"2025-304C","EPOCH":"2026-01-30T18:54:26.501472","MEAN_MOTION":15.42744433,"ECCENTRICITY":0.00038992,"INCLINATION":69.9978,"RA_OF_ASC_NODE":272.1642,"ARG_OF_PERICENTER":268.2303,"MEAN_ANOMALY":91.8432,"EPHEMERIS_TYPE":0,"CLASSIFICATION_TYPE":"U","NORAD_CAT_ID":67194,"ELEMENT_SET_NO":999,"REV_AT_EPOCH":815,"BSTAR":0.0009028468,"MEAN_MOTION_DOT":0.00039639,"MEAN_MOTION_DDOT":0},{"OBJECT_NAME":"STARLINK-36291","OBJECT_ID":"2025-304D","EPOCH":"2026-01-30T22:47:52.999008","MEAN_MOTION":15.42701144,"ECCENTRICITY":0.00031895,"INCLINATION":70.0007,"RA_OF_ASC_NODE":271.5218,"ARG_OF_PERICENTER":273.0163,"MEAN_ANOMALY":87.0654,"EPHEMERIS_TYPE":0,"CLASSIFICATION_TYPE":"U","NORAD_CAT_ID":67195,"ELEMENT_SET_NO":999,"REV_AT_EPOCH":818,"BSTAR":0.0005492293,"MEAN_MOTION_DOT":0.00023969,"MEAN_MOTION_DDOT":0},{"OBJECT_NAME":"STARLINK-36239","OBJECT_ID":"2025-304E","EPOCH":"2026-01-30T19:06:06.279264","MEAN_MOTION":15.42760721,"ECCENTRICITY":0.00042007,"INCLINATION":69.9998,"RA_OF_ASC_NODE":272.1933,"ARG_OF_PERICENTER":281.0347,"MEAN_ANOMALY":79.0362,"EPHEMERIS_TYPE":0,"CLASSIFICATION_TYPE":"U","NORAD_CAT_ID":67196,"ELEMENT_SET_NO":999,"REV_AT_EPOCH":815,"BSTAR":0.0013050764,"MEAN_MOTION_DOT":0.00057531,"MEAN_MOTION_DDOT":0},{"OBJECT_NAME":"STARLINK-36283","OBJECT_ID":"2025-304F","EPOCH":"2026-01-30T22:59:32.218656","MEAN_MOTION":15.42731891,"ECCENTRICITY":0.00036318,"INCLINATION":69.9992,"RA_OF_ASC_NODE":271.5501,"ARG_OF_PERICENTER":269.9132,"MEAN_ANOMALY":90.1634,"EPHEMERIS_TYPE":0,"CLASSIFICATION_TYPE":"U","NORAD_CAT_ID":67197,"ELEMENT_SET_NO":999,"REV_AT_EPOCH":818,"BSTAR":0.0011294621,"MEAN_MOTION_DOT":0.00049667,"MEAN_MOTION_DDOT":0},{"OBJECT_NAME":"STARLINK-36267","OBJECT_ID":"2025-304G","EPOCH":"2026-01-30T18:42:46.033344","MEAN_MOTION":15.42723139,"ECCENTRICITY":0.00040816,"INCLINATION":69.9984,"RA_OF_ASC_NODE":272.1362,"ARG_OF_PERICENTER":274.706,"MEAN_ANOMALY":85.3656,"EPHEMERIS_TYPE":0,"CLASSIFICATION_TYPE":"U","NORAD_CAT_ID":67198,"ELEMENT_SET_NO":999,"REV_AT_EPOCH":812,"BSTAR":0.0011828073,"MEAN_MOTION_DOT":0.00052024,"MEAN_MOTION_DDOT":0},{"OBJECT_NAME":"STARLINK-36268","OBJECT_ID":"2025-304H","EPOCH":"2026-01-30T19:29:26.771424","MEAN_MOTION":15.42766468,"ECCENTRICITY":0.00030057,"INCLINATION":70.0006,"RA_OF_ASC_NODE":271.8423,"ARG_OF_PERICENTER":241.4578,"MEAN_ANOMALY":118.6302,"EPHEMERIS_TYPE":0,"CLASSIFICATION_TYPE":"U","NORAD_CAT_ID":67199,"ELEMENT_SET_NO":999,"REV_AT_EPOCH":816,"BSTAR":0.00041266881,"MEAN_MOTION_DOT":0.00017998,"MEAN_MOTION_DDOT":0},{"OBJECT_NAME":"STARLINK-36270","OBJECT_ID":"2025-304J","EPOCH":"2026-01-30T17:38:42.229536","MEAN_MOTION":15.42765105,"ECCENTRICITY":0.00027584,"INCLINATION":69.9996,"RA_OF_ASC_NODE":272.3842,"ARG_OF_PERICENTER":274.3808,"MEAN_ANOMALY":85.7059,"EPHEMERIS_TYPE":0,"CLASSIFICATION_TYPE":"U","NORAD_CAT_ID":67200,"ELEMENT_SET_NO":999,"REV_AT_EPOCH":814,"BSTAR":0.0012971819,"MEAN_MOTION_DOT":0.00057179,"MEAN_MOTION_DDOT":0},{"OBJECT_NAME":"STARLINK-36262","OBJECT_ID":"2025-304K","EPOCH":"2026-01-30T22:07:08.784480","MEAN_MOTION":15.42725907,"ECCENTRICITY":0.00035425,"INCLINATION":70.0001,"RA_OF_ASC_NODE":271.8281,"ARG_OF_PERICENTER":271.7464,"MEAN_ANOMALY":88.3312,"EPHEMERIS_TYPE":0,"CLASSIFICATION_TYPE":"U","NORAD_CAT_ID":67201,"ELEMENT_SET_NO":999,"REV_AT_EPOCH":817,"BSTAR":0.00083438967,"MEAN_MOTION_DOT":0.00036583,"MEAN_MOTION_DDOT":0},{"OBJECT_NAME":"STARLINK-36263","OBJECT_ID":"2025-304L","EPOCH":"2026-01-30T21:55:28.572960","MEAN_MOTION":15.42713576,"ECCENTRICITY":0.00037162,"INCLINATION":69.9995,"RA_OF_ASC_NODE":271.7989,"ARG_OF_PERICENTER":272.435,"MEAN_ANOMALY":87.6406,"EPHEMERIS_TYPE":0,"CLASSIFICATION_TYPE":"U","NORAD_CAT_ID":67202,"ELEMENT_SET_NO":999,"REV_AT_EPOCH":817,"BSTAR":0.00092866751,"MEAN_MOTION_DOT":0.00040739,"MEAN_MOTION_DDOT":0},{"OBJECT_NAME":"STARLINK-36224","OBJECT_ID":"2025-304M","EPOCH":"2026-01-30T20:10:25.824288","MEAN_MOTION":15.42737988,"ECCENTRICITY":0.00047996,"INCLINATION":69.9998,"RA_OF_ASC_NODE":271.9446,"ARG_OF_PERICENTER":284.1943,"MEAN_ANOMALY":75.8705,"EPHEMERIS_TYPE":0,"CLASSIFICATION_TYPE":"U","NORAD_CAT_ID":67203,"ELEMENT_SET_NO":999,"REV_AT_EPOCH":816,"BSTAR":0.0014400092,"MEAN_MOTION_DOT":0.00063501,"MEAN_MOTION_DDOT":0},{"OBJECT_NAME":"STARLINK-36185","OBJECT_ID":"2025-304N","EPOCH":"2026-01-30T19:58:45.247296","MEAN_MOTION":15.42763449,"ECCENTRICITY":0.00036981,"INCLINATION":70.0008,"RA_OF_ASC_NODE":271.9149,"ARG_OF_PERICENTER":264.7599,"MEAN_ANOMALY":95.3161,"EPHEMERIS_TYPE":0,"CLASSIFICATION_TYPE":"U","NORAD_CAT_ID":67204,"ELEMENT_SET_NO":999,"REV_AT_EPOCH":816,"BSTAR":0.0016188666,"MEAN_MOTION_DOT":0.00071531,"MEAN_MOTION_DDOT":0},{"OBJECT_NAME":"STARLINK-36197","OBJECT_ID":"2025-304P","EPOCH":"2026-01-30T22:53:49.211520","MEAN_MOTION":15.42743836,"ECCENTRICITY":0.00034252,"INCLINATION":70.0006,"RA_OF_ASC_NODE":271.5361,"ARG_OF_PERICENTER":232.4528,"MEAN_ANOMALY":127.6343,"EPHEMERIS_TYPE":0,"CLASSIFICATION_TYPE":"U","NORAD_CAT_ID":67205,"ELEMENT_SET_NO":999,"REV_AT_EPOCH":815,"BSTAR":0.00064609503,"MEAN_MOTION_DOT":0.0002828,"MEAN_MOTION_DDOT":0}]
