STARLINK-36214          
1 67129U 25299AD  26030.66668981  .00006427  00000+0  16108-3 0  9990
2 67129  43.0026  27.4157 0001686 280.1276 252.5402 15.40682615  5806
STARLINK-36194          
1 67130U 25299AE  26030.71389073  .00058393  00000+0  13946-2 0  9995
2 67130  43.0024  27.3266 0000891  46.0809 314.0122 15.40696580  7265
STARLINK-36182          
1 67192U 25304A   26030.73917179  .00041401  00000+0  94241-3 0  9996
2 67192  70.0028 272.4001 0003162 265.7960  94.2860 15.42753596  8113
STARLINK-36279          
1 67193U 25304B   26030.96610182  .00055766  00000+0  12644-2 0  9991
2 67193  70.0014 271.5809 0003396 268.7176  91.3617 15.42788261  8188
STARLINK-36284          
1 67194U 25304C   26030.78780673  .00039639  00000+0  90285-3 0  9994
2 67194  69.9978 272.1642 0003899 268.2303  91.8432 15.42744433  8152
STARLINK-36291          
1 67195U 25304D   26030.94991897  .00023969  00000+0  54923-3 0  9993
2 67195  70.0007 271.5218 0003189 273.0163  87.0654 15.42701144  8189
STARLINK-36239          
1 67196U 25304E   26030.79590601  .00057531  00000+0  13051-2 0  9993
2 67196  69.9998 272.1933 0004200 281.0347  79.0362 15.42760721  8155
STARLINK-36283          
1 67197U 25304F   26030.95801179  .00049667  00000+0  11295-2 0  9996
2 67197  69.9992 271.5501 0003631 269.9132  90.1634 15.42731891  8183
STARLINK-36267          
1 67198U 25304G   26030.77969946  .00052024  00000+0  11828-2 0  9997
2 67198  69.9984 272.1362 0004081 274.7060  85.3656 15.42723139  8121
STARLINK-36268          
1 67199U 25304H   26030.81211541  .00017998  00000+0  41267-3 0  9996
2 67199  70.0006 271.8423 0003005 241.4578 118.6302 15.42766468  8168
STARLINK-36270          
1 67200U 25304J   26030.73521099  .00057179  00000+0  12972-2 0  9997
2 67200  69.9996 272.3842 0002758 274.3808  85.7059 15.42765105  8140
STARLINK-36262          
1 67201U 25304K   26030.92162945  .00036583  00000+0  83439-3 0  9993
2 67201  70.0001 271.8281 0003542 271.7464  88.3312 15.42725907  8173
STARLINK-36263          
1 67202U 25304L   26030.91352515  .00040739  00000+0  92867-3 0  9990
2 67202  69.9995 271.7989 0003716 272.4350  87.6406 15.42713576  8177
STARLINK-36224          
1 67203U 25304M   26030.84057667  .00063501  00000+0  14400-2 0  9991
2 67203  69.9998 271.9446 0004799 284.1943  75.8705 15.42737988  8164
STARLINK-36185          
1 67204U 25304N   26030.83246814  .00071531  00000+0  16189-2 0  9993
2 67204  70.0008 271.9149 0003698 264.7599  95.3161 15.42763449  8162
STARLINK-36197          
1 67205U 25304P   26030.95404180  .00028280  00000+0  64610-3 0  9995
2 67205  70.0006 271.5361 0003425 232.4528 127.6343 15.42743836  8153
